TEVEL2-7                
1 63238U 25052AE  26068.66113295  .00019244  00000+0  69668-3 0  9998
2 63238  97.4054 324.3041 0008105 124.6830 235.5175 15.28414096 54803
STARLINK-34409          
1 64485U 25133P   26068.35488817  .00003884  00000+0  14324-3 0  9996
2 64485  53.1572 118.5967 0001142  76.8573 283.2555 15.30187380 41138
